cam_id,cctv_id,description,lat,long,people,ribbon,boro,zipcode
112,83,SIE @ Richmond Ave,40.614885,-74.157435,0,1,Staten Island,10314
121,129,LIE @ Kissena Blvd,40.738943,-73.815047,1,0,Queens,11367
125,145,Qns Blvd @ QnCnt Mall,40.7335677903,-73.8693237305,1,1,Queens,11373
154,170,Victory Blvd @ Jersey St,40.635735,-74.083777,1,1,Staten Island,10301
172,11,Baxter St @ Canal Street,40.7166231327,-73.9991855621,1,1,Manhattan,10013
198,37,Cross Bronx Expy @ E of Undercliff (GWB),40.84476,-73.924777,0,0,Bronx,10452
274,166,FDR Dr @ 111 ST,40.791666,-73.935403,0,1,Manhattan,10029
290,187,Northern Blvd @ 68 St,40.7536616175,-73.8985919952,1,1,Queens,11377
358,247,Hylan Blvd @ New Dorp Lane,40.570469,-74.109749,1,0,Staten Island,10306
421,438,Broadway @ 51 St,40.7612683753,-73.9835643768,1,1,Manhattan,10019
454,357,WBB-2 @ NOR Bklyn-Driggs,40.710702869,-73.9631795883,0,0,Brooklyn,11211
471,399,MHB-33 Bklyn LRW @ Ex Ramp,40.6981774996,-73.9865255356,0,2,Brooklyn,11201
488,421,Flatbush Ave and Atlantic Ave,40.6832090347,-73.9769983292,1,0,Brooklyn,11217
514,455,Amsterdam Ave @ 60 St,40.7702068285,-73.9868688583,1,1,Manhattan,10023
533,477,St Nicholas Ave @ 181 St,40.849657,-73.933675,9,9,Manhattan,10033
561,502,Gowanus Expy @ 92 St,40.616282,-74.026136,0,0,Brooklyn,11209
574,583,Van Wyck Expwy @ Rockaway Blvd.,40.674623,-73.801507,0,0,Queens,11436
595,524,Brooklyn Queens Expy @ Atlantic Ave,40.691605,-73.999207,0,0,Brooklyn,11201
620,536,Brooklyn Queens Expy @ Broadway St,40.708182,-73.957279,0,0,Brooklyn,11211
633,624,West Shore Expwy @ Meredith Blvd.,40.597303,-74.191232,9,0,Staten Island,10314
656,566,Long Island Expy @ 99 St,40.735932,-73.858634,0,0,Queens,11374
668,541,Brooklyn Queens Expwyat Stewart Avenue,40.725389,-73.93316,9,9,Brooklyn,11222
680,608,GCP07 EB at Ditmars Blvd - Ex9,40.760521,-73.857694,0,0,Queens,11368
730,678,Bruckner Blvd @ Lincoln Ave,40.807681,-73.929512,0,1,Bronx,10454
743,691,Springfield Blvd @ Merrick Blvd,40.680209,-73.753356,1,2,Queens,11413
806,393,MHB-27 Bklyn N URDWY @ Twr,40.705112,-73.989272,0,2,Bridge,Bridge
835,729,Farmers Blvd @ N Conduit Ave,40.667436,-73.766763,1,1,Queens,11434
838,734,Grand St @ Bowery,40.718427,-73.99483,1,1,Manhattan,10013
857,751,Stillwell Ave @ Neptune Ave,40.579195,-73.981856,9,9,Brooklyn,11224
871,763,Hamilton Ave @ Hamilton Pl @ 15 St (N SR),40.669201,-73.99665,1,1,Brooklyn,11215
897,786,Jackie Robinson Pkwy @ Queens Blvd,40.714811,-73.829108,0,0,Queens,11375
910,798,Park Ave @ 96 St,40.786516,-73.952456,1,1,Manhattan,10029
944,832,BQE-23-EB_at_Division_Ave-Ex31,40.707191,-73.957735,9,9,Brooklyn,11211
956,844,VWE-21A-NB_at_QnsBlvd-Et.Rmp-Ex9,40.711512,-73.822072,9,9,Queens,11435
311,image,Brooklyn Battery Tunnel @ West Street,40.704567,-74.015205,999,999,Manhattan,10004
176,15,E 57 St @ QBB,40.7584403234,-73.9649391174,1,1,Manhattan,10022
313,image,Marine Parkway @ North Bound,40.58091,-73.8910388,999,999,Brooklyn,11234
124,146,Qns Blvd @ 65 Ave,40.7279742537,-73.8576507568,0,1,Queens,11374
317,image,Throgs Neck Bridge @ Bronx Bound,40.821165,-73.814488,999,999,Bronx,10465
979,867,Northern Blvd @ 61 St,40.75391,-73.901201,1,1,Queens,11377
980,868,BB – 25 North Rdwy @ West of Manhattan Twr,40.707558,-73.998581,0,1,Bridge,Bridge
1000,888,BB-29 North East Manhattan Tower,40.707189,-73.998376,0,1,Bridge,Bridge
1017,904,Bruckner Expwy (BRE-03) @ Witier St Ex 49,40.822617,-73.885982,0,0,Bronx,10459
1028,914,10 Ave @ Dyer Ave,40.752424,-74.000899,1,0,Manhattan,10001
1031,917,BB – 52A Brooklyn Tower – North Rdwy,40.704173,-73.994281,0,1,Brooklyn,11201
1036,922,Webster Ave @ E 165,40.827872,-73.912005,1,0,Bronx,10456
119,127,GCP @ 166 St,40.716879,-73.800069,0,1,Queens,11432
120,143,Cross Island Pkwy @ Union Tpke,40.7401688594,-73.7265014648,0,2,Queens,11426
128,159,Belt Pkwy @ 130 St,40.6666,-73.8104,0,2,Queens,11420
163,2,Church Street @ Vesey,40.7112233528,-74.0097856522,1,1,Manhattan,10007
164,3,2 Ave @ 59 St (QBB),40.7599031239,-73.9641237259,0,1,Manhattan,10022
165,4,2 Ave @ 36 St-Midtown Tunnel,40.7453386975,-73.9748954773,1,1,Manhattan,10016
168,7,5 Ave @ 23 St,40.7406891129,-73.989443779,1,1,Manhattan,10010
169,8,5 Ave @ 49 St,40.7571075216,-73.9775562286,1,1,Manhattan,10017
170,9,6 Ave @ 34 St,40.7488175446,-73.9874696732,1,1,Manhattan,10001
171,10,6 Ave @ 49 St,40.7584078163,-73.9807319641,1,1,Manhattan,10020
173,12,6 Ave @ 42 St,40.754084238,-73.9839076996,1,1,Manhattan,10018
180,19,8 Ave @ 34 St,40.751353412,-73.9933919907,1,1,Manhattan,10001
183,22,FDR Dr @ Catherine Street,40.7082630467,-73.9972543716,0,1,Bridge,Bridge
192,31,11 Ave @ 42 St,40.7599031239,-73.9981555939,1,1,Manhattan,10036
205,44,BQE @ Hamilton Ave B-G Ramp,40.6750400414,-74.0003013611,0,0,Brooklyn,11231
247,102,2 Ave @ 125 St,40.8019529919,-73.9333963394,1,1,Manhattan,10035
289,186,Northern Blvd @ GCP,40.7576926574,-73.8543891907,9,9,Queens,11368
326,200,11 Ave @ 34 ST,40.7549294709,-74.0018033981,1,1,Manhattan,10001
328,203,207 ST @ 9 Ave,40.8628358167,-73.9170026779,1,2,Manhattan,10034
340,232,Victory Blvd WOF Campus Dr,40.608768,-74.153616,9,9,Staten Island,10314
360,254,1 Ave @ 124 St,40.8004261442,-73.9315509796,1,1,Manhattan,10035
361,253,1 Ave @ 23 St,40.7359741672,-73.9782857895,1,1,Manhattan,10010
366,258,2 Ave @ 49 St,40.753401542,-73.9688444138,9,9,Manhattan,10017
368,261,1 Ave @ 110 St,40.7914267751,-73.9380741119,1,1,Manhattan,10029
370,263,1 Ave @ 86 St,40.776024303,-73.9493179321,1,1,Manhattan,10028
398,290,3 Ave @ 42 St,40.7498904234,-73.9742946625,1,1,Manhattan,10017
399,428,3 Ave @ 57 St,40.7594480338,-73.9673423767,1,1,Manhattan,10022
400,432,3 Ave @ 59 St,40.7607157769,-73.9663982391,1,1,Manhattan,10022
991,878,BB -39 North Rdwy @ Bridge Midspan,40.7060356,-73.9966579,1,0,Bridge,Bridge
714,663,Rockaway Blvd @ Division St,40.6370209746,-73.7404337159,0,0,Queens,Bridge
935,823,Kissena Blvd @ Sanford Ave,40.757138,-73.827106,0,1,Queens,11355
409,299,5 Ave @ 57 St,40.7621785273,-73.9737796783,1,1,Manhattan,10022
410,429,3 Ave @ 49 St,40.7544093288,-73.9711618423,1,0,Manhattan,10017
413,303,Lexington Ave @ 42 St,40.7506381772,-73.9759254456,1,1,Manhattan,10017
414,304,6 Ave @ 57 St,40.7634462183,-73.9769554138,1,1,Manhattan,10019
415,305,5 Ave @ 34 St,40.7475495747,-73.9844655991,1,1,Manhattan,10016
416,439,7 Ave @ 49 St,40.7596430728,-73.9835643768,1,1,Manhattan,10019
427,317,Pearl Street @ St. James Pl,40.710475156,-74.0002155304,1,0,Manhattan,10038
462,376,WBB-21 @ SOR Manh Appr,40.7169158793,-73.985710144,0,0,Manhattan,10002
472,400,2 Ave @ 58 St,40.7592529943,-73.9646816254,1,1,Manhattan,10022
483,416,QBB LL CM @ 11 St,40.7526863292,-73.9464426041,0,1,Queens,11101
489,422,7 Ave @ 43 St,40.7567,-73.986494,1,1,Manhattan,10036
494,427,Atlantic Ave @ Vanderbilt Ave,40.6809634749,-73.9670419693,9,9,Brooklyn,11238
495,430,3 Ave @ 23 St,40.7379902539,-73.982963562,1,1,Manhattan,10010
501,440,7 Ave @ 34 St,40.7501505126,-73.9905595779,1,1,Manhattan,10001
503,443,8 Ave @ 14 St,40.7389657577,-74.0023183823,1,1,Manhattan,10011
504,444,7 Ave @ 57 St,40.764746389,-73.9799594879,1,1,Manhattan,10019
509,446,6 Ave @ 14 St,40.7364944535,-73.9965677261,1,2,Manhattan,10011
510,447,7 Ave @ 23St,40.7433228336,-73.9954519272,1,1,Manhattan,10011
511,448,6 Ave @ 23 St,40.7420872739,-73.9926624298,1,1,Manhattan,10010
523,466,5 Ave @ 42 St,40.7526213095,-73.9806890488,1,1,Manhattan,10017
524,464,CPW @ 96 St,40.790809445,-73.96459579,1,1,Manhattan,00083
529,471,7 Ave @ 145 St,40.8207270979,-73.9388036728,1,1,Manhattan,10030
537,644,1 Ave @ 96 St,40.783304,-73.944662,1,1,Manhattan,10029
542,482,Lexington Ave @ 34 St,40.7456963443,-73.9796161652,1,0,Manhattan,10016
543,484,12 Ave @ 57 St,40.7707268469,-73.9942073822,0,0,Manhattan,10019
544,485,12 Ave @ 42 St,40.7612683753,-74.0009021759,1,1,Manhattan,10036
545,486,12 Ave @ 34 St,40.7562948245,-74.0045070648,1,1,Manhattan,10001
789,696,1 Ave @ E 14 St,40.731331,-73.982561,1,1,Manhattan,10009
794,699,2 Ave @ 23 St,40.737876,-73.980926,1,1,Manhattan,10010
795,702,FDR @ 120 St,40.796969,-73.929317,1,1,Manhattan,10035
821,385,MHB -19 Manh N URDW @ Anch,40.710705,-73.992304,0,1,Manhattan,10002
547,488,12 Ave @ 22 St,40.7477121363,-74.007897377,1,1,Manhattan,10011
548,489,12 Ave @ 14 St,40.7418271531,-74.0087985992,1,1,Manhattan,10014
550,490,1 Ave @ 42 St,40.7480372583,-73.9694881439,1,1,Manhattan,10017
551,491,2 Ave @ 42 St,40.7490451264,-73.9719772339,1,1,Manhattan,10017
571,510,Gowanus Expy @ Prospect Interchange,40.6669025988,-73.9957094193,0,0,Brooklyn,11215
585,591,Van Wyck Expwy @ Atlantic Ave,40.697027,-73.813767,0,0,Queens,11419
599,600,Van Wyck Expwy @ College Point Blvd.,40.748502,-73.834591,0,0,Queens,11355
625,616,Korean War Vetrans Pkwy @ Bloomingdale Rd,40.528267,-74.216659,0,0,Staten Island,10309
638,627,Staten Island Expwy @ Forest Ave,40.625093,-74.177713,0,0,Staten Island,10303
664,574,Long Island Expy @ Francis Lewis Blvd,40.743389,-73.774497,0,0,Queens,11364
670,543,BQE33 WB at 45th St - Ex35,40.734787,-73.921208,0,0,Queens,11377
709,660,Woodhaven Blvd @ Union Tpke,40.70561,-73.8582,1,1,Queens,11385
717,666,6 Ave @ West Houston St,40.728348,-74.002878,1,1,Manhattan,10014
721,670,Houston St @ Christies St,40.724006,-73.990992,9,9,Manhattan,10003
741,689,Amsterdam Ave @ 125 St,40.813323,-73.956265,1,0,Manhattan,10027
827,721,11 Ave @ 57 St,40.770316,-73.991381,1,1,Manhattan,10019
828,722,10 Ave @ 57 St,40.769126,-73.98858,1,1,Manhattan,10019
836,730,Rockaway Blvd @ Guy Brewer Blvd,40.656274,-73.767364,1,1,Queens,11434
845,739,3 Ave @ E 14 St,40.733504,-73.987239,1,1,Manhattan,10003
846,740,2 Ave @ E 14 St,40.732373,-73.984954,1,1,Manhattan,10003
856,750,Stillwell Ave @ Surf Ave,40.575565,-73.981202,1,1,Brooklyn,11224
859,753,Hylan Blvd @ Guyon Ave,40.560385,-74.120024,1,1,Staten Island,10306
885,778,Pelham Shore Rd @ City Island Rd,40.864552,-73.813781,9,9,Bronx,10464
899,787,Broadway @ 43 St,40.756583,-73.986156,1,1,Manhattan,10036
891,782,7 Ave @ 43 St,40.756691,-73.986476,1,0,Manhattan,10036
906,794,5 Ave @ 65 St,40.768025,-73.970282,1,1,Manhattan,00083
908,796,5 Ave @ 96 St,40.787916,-73.955752,1,2,Manhattan,10029
922,811,QBB UL Entrance @ Thomson Ave,40.745235,-73.9377,0,0,Queens,11101
934,822,2 Ave @ 74 St,40.770142,-73.957381,1,1,Manhattan,10021
936,824,Cross Bay Blvd @ 6 Rd,40.609628,-73.819118,9,9,Queens,11693
940,827,1 Ave @ 62 St,40.761501,-73.960542,1,1,Manhattan,10065
947,835,GCP-02-WB_at_46th_St-Ex45,40.768396,-73.905687,0,0,Queens,11103
970,857,Central Park West @ 86 St,40.785302,-73.969353,1,1,Manhattan,10024
1030,916,4 Ave @ Shore Rd,40.61136,-74.034782,0,1,Brooklyn,11209
132,61,Belt Pkwy @ Flatbush,40.5956413286,-73.9076471329,0,0,Brooklyn,11234
140,115,Belt Pkwy @ Ocean Pkwy,40.5832573066,-73.9666557312,0,1,Brooklyn,11235
139,114,Belt Pkwy @ 68 St,40.6390324746,-74.0356206894,0,1,Brooklyn,11220
141,116,Belt Pkwy @ Erskine,40.6509177713,-73.8657617569,0,1,Brooklyn,11239
175,14,Brooklyn Bridge @ Centre Street,40.7117763624,-74.0047216415,1,0,Manhattan,10038
178,352,9 Ave @ 34 St,40.7524587599,-73.9961385727,9,9,Manhattan,10001
179,18,8 Ave @ Columbus Cr South,40.766969,-73.982265,1,0,Manhattan,10019
181,20,8 Ave @ 42 St,40.7562948245,-73.989572525,1,1,Manhattan,10036
187,26,Broadway @ 46 Street,40.7578877015,-73.9853668213,1,1,Manhattan,10036
224,65,Broadway @ 169 Street,40.8408595069,-73.9391469955,1,1,Manhattan,10032
229,355,9 Ave @ 23 St,40.7457938841,-74.0012025833,0,1,Manhattan,10011
248,112,Amsterdam @ 178 St,40.850354,-73.940604,1,1,Manhattan,10033
321,194,Bronx River Pkwy @ 233 ST,40.893866,-73.863297,0,2,Bronx,10467
351,223,Broadway @ Vesey St,40.7106378082,-74.0085411072,1,1,Manhattan,10038
473,401,6 Ave @ 58 St,40.7642913322,-73.9765262604,1,0,Manhattan,10019
907,795,5 Ave @ 66 St,40.768651,-73.969814,0,1,Manhattan,10065
359,354,9 Ave @ 30 St,40.7501505126,-73.9978981018,9,9,Manhattan,10001
420,437,8 Ave @ 49 St,40.7608132946,-73.9863967896,1,1,Manhattan,10019
443,335,Belt Pkwy @ Brookville Blvd,40.6652749911,-73.7404060364,0,1,Queens,11413
445,337,Broadway @ Chambers St,40.713337,-74.006223,1,0,Manhattan,10007
452,348,Brooklyn Bridge - Ped Walk Way,40.709046,-74.000735,1,1,Manhattan,10038
475,403,Broadway @ 42 St,40.7550920145,-73.9867401123,1,1,Manhattan,10036
491,424,Atlantic Ave @ Boerum St,40.6884158386,-73.9902591705,1,1,Brooklyn,11201
492,425,Atlantic Ave @ BQE,40.6907587677,-73.9984130859,1,1,Brooklyn,11201
496,434,Belt Pkwy @ Pennsylvania Ave,40.6425168767,-73.8758897781,0,1,Brooklyn,11239
500,441,8th Ave @ 23 St,40.744395801,-73.9981126785,1,1,Manhattan,10011
502,350,9 Ave @ 49 St,40.7619834958,-73.9892292023,1,1,Manhattan,10019
506,351,9 Ave @ 42 St,40.7575951351,-73.9924478531,1,1,Manhattan,10036
507,353,9 Ave @ 37 St,40.7544743468,-73.9946365356,1,1,Manhattan,10018
508,349,9 Ave @ 57 St,40.7671191351,-73.9854955673,1,1,Manhattan,10019
515,456,9 Ave @ 48 St,40.7613658922,-73.9896583557,9,9,Manhattan,10036
518,461,Belt Pkwy @ Bay 8th St,40.6043925501,-74.0169858619,0,0,Brooklyn,11228
526,468,Amsterdam @ 72 St,40.777876688,-73.9814186096,1,1,Manhattan,10023
527,469,Amsterdam @ 86 St,40.7868778935,-73.9748954773,1,1,Manhattan,10024
637,550,Belt Pkwy@ Cross Bay Blvd,40.666453,-73.841179,9,0,Queens,11414
640,551,Belt Pkwy @ 150th St,40.667592,-73.771721,0,0,Queens,11434
671,544,BQE35 EB at 61st St - Ex39,40.73825,-73.903635,0,0,Queens,11377
672,545,BQE39 WB at Broadway - Ex40,40.748801,-73.896317,0,0,Queens,11377
673,546,BQE40 WB at Northern Blvd - Ex41,40.754149,-73.898635,0,0,Queens,11377
699,162,Belt Pkwy @ 158 Ave,40.659301,-73.854457,0,1,Queens,11414
711,661,BQE E/B Ent. Ramp @ Broadway,40.748641,-73.895892,0,1,Queens,11377
739,687,Broadway @ 96 St,40.794668,-73.971788,1,1,Manhattan,10025
815,711,Beach Channel Dr @B 140 St,40.57757,-73.859754,0,0,Queens,11694
816,712,Beach Channel Dr @B 101 St,40.585808,-73.823158,1,1,Queens,11694
817,713,Beach Channel Dr @B 90 St,40.589356,-73.815578,1,1,Queens,11693
818,714,Beach Channel Dr @B 32 St,40.598651,-73.766059,1,1,Queens,11691
847,741,Amsterdam Ave @ 181 St,40.84833,-73.930868,1,1,Manhattan,10033
918,806,Boerum Pl @ Fulton St & Joralemon St,40.692174,-73.98913,9,9,Brooklyn,11201
924,813,Beach Channel Dr @ Beach 116 St,40.58174,-73.838443,1,1,Queens,11694
937,825,Broadway @ 145 St,40.826446,-73.950423,1,1,Manhattan,10031
942,830,BQE-09-WB_at_State_St_LL-Ex27,40.692444,-73.999539,0,0,Brooklyn,11201
943,831,BQE-17_E_at_Navy_St-Ex29B,40.696418,-73.980496,9,9,Brooklyn,11201
945,833,BQE-32-WB_at_ramp_to_LIE-Ex35,40.735292,-73.91917,0,0,Queens,11377
963,861,BB – 64 South Rdwy @ Bklyn Twr Side Sapn,40.703795,-73.994062,0,1,Brooklyn,11201
973,860,Astoria Blvd @ 108 St,40.760433,-73.861412,1,1,Queens,11369
974,862,BB -  71 North Rdwy @ Front St  ,40.702524,-73.992283,0,1,Brooklyn,11201
975,863,BB – 72 South Rdwy @ Front St,40.702461,-73.992372,9,9,Brooklyn,11201
981,869,BB – 26 South Rdwy @ West of Manhattan Twr,40.707458,-73.998712,0,1,Bridge,Bridge
982,870,BB – 15 North Rdwy @ Manhattan Anchorage,40.708574,-74.000112,0,1,Manhattan,10038
983,871,BB – 16 South Rdwy @ Manhattan Anchorage,40.708647,-73.999962,0,1,Manhattan,10038
984,872,BB-63 North Rdwy@ Bklyn Twr East,40.703912,-73.994062,0,0,Brooklyn,11201
986,874,Br Br - 19 N Rdwy @ FDR Dr,40.708195,-73.999305,0,1,Manhattan,10002
987,875,Br Br-20 S Rdwy FDR Dr,40.708045,-73.999541,0,1,Manhattan,10038
990,877,BB -24 South Rdwy @ Above South St,40.708186,-73.999623,0,1,Manhattan,10038
992,879,BB - 42 South Rdwy @ Bridge Midspan,40.705954,-73.996802,0,0,Bridge,Bridge
993,880,BB - 47 North Rdwy @ West of Bklyn Twr,40.705446,-73.9959166,1,0,Bridge,Bridge
994,881,BB - 50 South Rdwy @ West of Bklyn Twr,40.705361,-73.996088,1,0,Bridge,Bridge
995,882,BB - 66 North Rdwy @ Above Water St/Bklyn,40.703392,-73.99335,1,0,Brooklyn,11201
996,883,BB - 68 South Rdwy @ Above Water St/Bklyn,40.703286,-73.99356,1,0,Brooklyn,11201
997,885,BB-27 South-West Manhattan Tower,40.707228,-73.998439,0,1,Bridge,Bridge
998,886,BB-27A Manhattan Tower South,40.707138,-73.998502,0,1,Bridge,Bridge
999,887,BB-28A Manhattan Tower North,40.707365,-73.998188,0,1,Bridge,Bridge
1001,889,BB-30 South East Manhattan Tower,40.707376,-73.998188,0,1,Bridge,Bridge
1002,890,BB-51 North West Brooklyn Tower,40.704172,-73.994324,0,0,Brooklyn,11201
1003,891,BB-52 South West Brooklyn Tower,40.704071,-73.994462,0,0,Brooklyn,11201
1004,892,BB-53 North East Brooklyn Tower,40.704129,-73.994275,0,0,Brooklyn,11201
1006,894,BB - 28 North West Manhattan Tower,40.707339,-73.998294,0,1,Bridge,Bridge
1032,918,BB – 51A Brooklyn Tower – South Rdwy,40.704131,-73.994659,0,1,Brooklyn,11201
1037,923,Adam C. Powell Blvd @ 110 St/CPN,40.799492,-73.955209,1,0,Manhattan,10026
312,image,Brooklyn-Battery Tunnel @ Brooklyn Side,40.6804102095,-74.0048503876,999,999,Brooklyn,11231
316,image,CrossBay @ North Bound,40.587526,-73.81731,999,999,Queens,11693
315,image,CrossBay @ South Bound,40.597758,-73.82082,999,999,Queens,11693
123,144,Clearview @ Northern Blvd,40.7577251648,-73.7767982483,9,9,Queens,11361
143,120,Cross Island Pkwy @ Throgsneck,40.788185,-73.790539,0,1,Queens,11360
166,5,Central Park S @ Columbus Cr,40.7677366853,-73.981461525,1,0,Manhattan,10019
946,834,BQE-43-EB_at_49th_St-Ex44,40.76584,-73.903508,1,0,Queens,11377
989,876,BB -21 North Rdwy @ Above South St,40.708272,-73.999488,1,1,Manhattan,10002
686,637,BRE05 WB at Castle Hill Ave Ex52,40.827303,-73.849905,0,0,Bronx,10473
819,715,Beach Channel Dr @B Mott Ave,40.605347,-73.75518,0,1,Queens,11691
1005,893,BB-54 South East Brooklyn Tower,40.70403,-73.994422,999,0,Brooklyn,11201
177,16,E 63 St @ QBB,40.7619184851,-73.9613771439,1,1,Manhattan,10065
182,21,Dyer @ 42 Street,40.7581477594,-73.9939069748,1,1,Manhattan,10018
194,33,Cross Bronx Expy @ Randall Avenue,40.8240720989,-73.824262619,0,0,Bronx,10465
347,220,Church St @ Park Pl,40.7124920152,-74.0090990067,1,1,Manhattan,10007
434,324,Canal Street @ Chrystie Street,40.7151919084,-73.9945936203,0,0,Manhattan,10002
435,325,Canal Street @ Allen Street,40.7144112276,-73.9922332764,9,9,Manhattan,10002
448,339,Clearview Expy @ 26th Ave,40.7754393286,-73.7841796875,9,9,Queens,11360
450,341,Cross Island Expy @ 14 Ave,40.7873652885,-73.8159799576,9,9,Queens,11357
505,445,Columbus St @ 65 Ave,40.7721568767,-73.981719017,1,1,Manhattan,10023
513,454,Columbus Ave @ 67 St,40.7735218764,-73.9808177948,9,9,Manhattan,10023
583,517,Brooklyn Queens Expy @ Hamilton Ave,40.680264,-74.003627,0,0,Brooklyn,11231
588,519,Brooklyn Queens Expy @ Union St,40.684397,-74.001245,0,0,Brooklyn,11231
592,523,Brooklyn Queens Expy @ Congress St,40.689685,-73.998735,0,0,Brooklyn,11201
598,525,Brooklyn Queens Expy @ State St UL,40.692369,-73.999486,0,0,Brooklyn,11201
605,528,Brooklyn Queens Expy @ Middagh St UL,40.701187,-73.9941,0,0,Brooklyn,11201
609,529,Brooklyn Queens Expy @ Middagh St LL,40.700943,-73.994701,0,0,Brooklyn,11201
611,530,Brooklyn Queens Expy @ Adams St,40.701366,-73.98865,0,0,Brooklyn,11201
614,531,Brooklyn Queens Expy @ Sands St,40.699934,-73.984766,0,0,Brooklyn,11201
615,532,Brooklyn Queens Expy @ Kent Ave,40.6992511949,-73.9613771439,0,0,Brooklyn,11249
616,533,Brooklyn Queens Expy @ Wythe Ave,40.698129,-73.962429,0,0,Brooklyn,11249
619,535,Brooklyn Queens Expy @ Lee Ave,40.704977,-73.959124,9,0,Brooklyn,11211
622,537,Brooklyn Queens Expy @ South 5th St,40.708849,-73.956785,0,0,Brooklyn,11211
624,538,Brooklyn Queens Expy @  Metropolitan Ave,40.71407,-73.953137,0,0,Brooklyn,11211
627,539,Brooklyn Queens Expy @ Manhattan Ave,40.718672,-73.946786,0,0,Brooklyn,11222
630,540,Brooklyn Queens Expy @ Morgan Ave,40.723242,-73.939254,0,0,Brooklyn,11222
632,547,Brooklyn Queens Expy @ 31st Ave,40.757806,-73.899837,0,0,Queens,11377
635,548,Brooklyn Queens Expy - GCP @ 31st Ave,40.75766,-73.90106,0,0,Queens,11377
674,552,CVE02 NB at 64th Ave,40.741934,-73.770174,0,0,Queens,11364
675,553,CVE03 SB at 56th Ave,40.748147,-73.773658,0,0,Queens,11364
676,554,CVE04 SB at 48th Ave,40.752691,-73.775804,0,0,Queens,11364
696,648,Cross Bay Blvd @ 20 Rd,40.598884,-73.820711,0,1,Queens,11693
700,651,Cross Bay Blvd @ North Channel Bridge,40.588759,-73.819342,0,1,Bridge,Bridge
703,654,Cross Bay Blvd @ 157 Ave,40.662511,-73.840815,0,1,Queens,11414
705,656,Cross Bay Blvd @ Rockaway Blvd,40.68638,-73.8446,0,1,Queens,11416
706,657,Cross Bay Blvd @  Wildlife Refuge,40.61998,-73.8257,0,1,Queens,11693
731,679,FDR @ Grand St,40.713209,-73.977491,0,1,Manhattan,10002
732,680,FDR @ E 6 St,40.721494,-73.974554,0,0,Manhattan,10002
733,681,FDR @ E 53 St,40.754739,-73.96219,0,0,Manhattan,10022
735,683,FDR @ 48 St,40.751693,-73.965239,0,1,Manhattan,10017
736,684,FDR @ Jackson St,40.710874,-73.980571,0,1,Manhattan,10002
790,697,East Houston St @ Ave B,40.721437,-73.983838,1,1,Manhattan,10002
791,698,East Houston St @ Ave D,40.719876,-73.978731,1,1,Manhattan,10002
810,706,E 149 St @ River Ave,40.819285,-73.930094,1,1,Bronx,10451
823,717,Exterior St @ E 138 St,40.81369,-73.931416,1,1,Bronx,10451
829,723,Farmers Blvd @ 147 Ave @ 175 St,40.661198,-73.770991,1,1,Queens,11434
873,766,College Point Blvd @ 35 Ave,40.763583,-73.836038,1,1,Queens,11354
874,767,College Point Blvd @ Roosevelt Ave,40.758092,-73.834234,1,1,Queens,11354
875,768,College Point Blvd @ Sanford Ave,40.75467,-73.833092,1,1,Queens,11355
911,799,College Point Blvd @ Booth Memorial Ave,40.747994,-73.833113,0,1,Queens,11355
915,803,Cadman Plz E/Washington St @ Prospect St,40.700743,-73.989736,1,1,Brooklyn,11201
919,807,Cadman Plz West @ Tillary St,40.696267,-73.991073,9,9,Brooklyn,11201
930,819,FDR Dr @ 10 St,40.724136,-73.973412,0,1,Manhattan,10009
931,820,Columbus Ave @ 90 St,40.789062,-73.970297,9,9,Manhattan,10024
964,851,Central Park West @ 66 St,40.772441,-73.978751,1,1,Manhattan,10023
966,853,Central Park West @ 65 St,40.771797,-73.979217,1,1,Manhattan,10023
967,854,Central Park West @ 72 St,40.776225,-73.975974,1,1,Manhattan,10023
968,855,Central Park West @ 77 St,40.779481,-73.973578,1,1,Manhattan,10024
969,856,Central Park West @ 81 St,40.782031,-73.971734,1,1,Manhattan,10024
971,858,Central Park West @ 96 St,40.791667,-73.964697,1,1,Manhattan,10025
988,884,Canal St @ Broadway,40.719655,-74.001842,1,1,Manhattan,10013
1015,902,Bruckner Expwy (BRE-01) WB @ E. 149 St Ex48,40.809519,-73.903004,0,0,Bronx,10455
1016,903,Bruckner Expwy (BRE-02) EB @ Hunts Pt Ave Ex 50,40.819954,-73.890441,0,0,Bronx,10474
1018,905,Cross Bronx Expwy (CBE-01) NB @ Amsterdam Av Ex HRD,40.846375,-73.932182,9,9,Manhattan,10033
1019,906,Cross Bronx Expwy (CBE-03) NB @ Nelson Ave Ex02A,40.844875,-73.920446,0,0,Bronx,10452
1020,907,Cross Bronx Expwy (CBE-04) NB @ Macombs Rd Ex2A,40.845019,-73.917337,0,0,Bronx,10452
1021,908,Cross Bronx Expwy (CBE-05) SB @ Walton Av Ex2A,40.84524,-73.911906,0,0,Bronx,10453
1022,909,Cross Bronx Expwy (CBE-06) NB @ Weeks Av Ex2B,40.844891,-73.907556,0,0,Bronx,10457
1023,910,Cross Bronx Expwy (CBE-08) SB @ Arthur Av Ex3,40.84377,-73.894791,0,0,Bronx,10457
449,340,Clearview Expy @ 35 St,40.7665340823,-73.7809610367,1,0,Queens,11361
824,718,Exterior St @ 3 Ave,40.809314,-73.929538,1,1,Bronx,10451
965,852,Central Park West @ 100 St,40.79421,-73.962857,1,1,Manhattan,10025
734,682,FDR @ E 127 St,40.803143,-73.930444,0,1,Manhattan,10035
589,521,Brooklyn Queens Expy @ Sackett St,40.684901,-74.000988,1,0,Brooklyn,11231
1024,911,Cross Bronx Expwy (CBE-09) NB @ Marion Av Ex3,40.841645,-73.888362,0,0,Bronx,10460
1026,35,Bruckner Expy @ Bronx River Pkwy,40.8238122991,-73.8717269897,9,9,Bronx,10473
307,image,Henry Hudson @ North Bound,40.8780234504,-73.9206075668,999,999,Bronx,10463
308,image,Henry Hudson @ South Bound,40.8759791642,-73.9236545563,999,999,Manhattan,10034
142,106,GCP @ Astoria Blvd @ 49 St,40.7670031362,-73.901191446,0,0,Queens,11377
152,163,GR Brewer @ Belt,40.6667398398,-73.7709617615,9,9,Queens,11434
157,92,Holland Tunnel,40.725925,-74.009506,9,9,Manhattan,10013
159,98,Grand Army Plaza,40.672744,-73.968781,9,9,Brooklyn,11238
160,108,GCP @ 31 ST,40.7701093246,-73.917131424,0,2,Queens,11103
186,25,FDR Dr @ 96 Street,40.7821012323,-73.943696022,1,1,Bridge,Bridge
188,27,FDR Dr @ 135 Street,40.8109509339,-73.9343833923,0,1,Manhattan,10037
193,32,Hutchinson Rvr Pkwy @ Whitestone Br,40.814048,-73.836467,9,9,Bronx,10465
201,40,Hutchinson River Pkwy @ East Tremont,40.840681,-73.838395,9,9,Bronx,10461
206,45,Gowanus Expy @ Sackett St,40.6838924509,-74.0009450912,1,0,Brooklyn,11231
223,64,FDR Dr @ Old Slip,40.7031553959,-74.0070390701,1,1,Bridge,Bridge
233,442,FDR Dr @ 155 Street,40.827384458,-73.934211731,0,1,Bridge,Bridge
253,134,FDR Dr @ 23 St,40.7348035083,-73.9746809006,1,2,Manhattan,10010
278,173,Henry Hudson Pkwy @ 232 St,40.8838314748,-73.914513588,0,1,Bronx,10463
318,201,Fordham Rd and Grand Concourse,40.8617972187,-73.8967037201,1,1,Bronx,10458
378,269,GCP E Connector  @ 126 St,40.759919,-73.846248,0,0,Queens,11368
394,279,Gowanus Expy WB @ 36 St,40.6548248038,-74.006524086,9,9,Brooklyn,11232
436,326,FDR Dr @ Brooklyn Bridge Exit SB,40.7072545607,-74.000043869,0,1,Bridge,Bridge
437,327,FDR Dr @ Brooklyn Bridge Exit NB,40.7078076033,-73.998670578,0,1,Bridge,Bridge
439,329,Flatbush Ave @ Tillary St,40.6955094543,-73.9841222763,1,1,Brooklyn,11201
440,330,Flatbush Ave @ Willoughby,40.6912143276,-73.9822340012,1,1,Brooklyn,11201
487,420,Flatbush Ave and 4 Ave,40.6838924509,-73.9779424667,1,1,Brooklyn,11217
493,426,Flatbush Ave@ 6 Ave,40.6793036648,-73.9745521545,1,0,Brooklyn,11217
512,453,Greenwich St @ Morris St,40.7056279382,-74.0141201019,1,1,Manhattan,10275
516,457,Grand St @ Broadway,40.7200059042,-74.0005159378,9,9,Manhattan,10013
517,458,Grand St @ Essex St,40.7159075244,-73.9888000488,1,1,Manhattan,10002
519,459,Grand St @ Allen St,40.7165580777,-73.990945816,1,0,Manhattan,10002
554,495,Henry Hudson @ 158 St,40.835891916,-73.9487171173,0,1,Manhattan,10031
558,500,Henry Hudson @ 137 St,40.8219936715,-73.9572572708,0,1,Manhattan,10027
564,504,Gowanus Expwy @ 79 Street,40.623855,-74.019785,0,0,Brooklyn,11209
565,505,Gowanus Expwy @ 72 Street,40.628871,-74.01736,0,0,Brooklyn,11209
566,506,Gowanus Expwy btwn 6 & 7 Ave,40.633219,-74.016266,0,0,Brooklyn,11220
567,507,Gowanus Expwy @ 6 Ave,40.63532,-74.016802,9,9,Brooklyn,11220
569,508,Gowanus Expwy @ 63 Street,40.640205,-74.021673,9,9,Brooklyn,11220
570,509,Gowanus Expwy @ 57 St,40.643722,-74.018648,9,9,Brooklyn,11220
604,603,Grand Central Pkwy @ 37 Street,40.769492,-73.912797,0,0,Queens,11103
606,604,Grand Central Pkwy @ 46 street,40.768029,-73.905244,0,0,Queens,11103
607,605,Grand Central Pkwy @ 72 Street,40.767022,-73.896918,0,0,Queens,11370
608,606,Grand Central Pkwy @ 75 Street,40.766372,-73.8937,0,0,Queens,11370
612,611,Grand Central Pkwy E/Connector @ Astoria Blvd,40.758115,-73.852715,0,0,Queens,11368
679,607,GCP06 WB at 27th Ave - Ex6,40.771572,-73.876061,9,9,Queens,11371
681,609,GCP08 EB at Roosevelt Ave - Ex9,40.752036129,-73.85181427,0,0,Queens,11368
689,640,FDR Dr @ 38 St,40.744441,-73.971242,0,1,Manhattan,10016
690,641,FDR Dr @ 90 St,40.777422,-73.942713,0,1,Manhattan,10028
692,643,FDR Dr @ 73 St,40.766599,-73.950845,9,9,Manhattan,10021
713,662,GCP @ LGA 94 St Exit,40.771466,-73.877462,0,0,Queens,11371
719,668,Houston St @ Lafeyette St,40.725063,-73.995413,9,9,Manhattan,10012
720,669,Houston St @ Bowery St,40.724348,-73.992623,0,0,Manhattan,10012
722,671,Houston St @ Broadway,40.725458,-73.996756,1,1,Manhattan,10012
788,695,Hillside Ave @ Little Neck Pkwy,40.736207,-73.713777,9,9,Queens,11426
812,708,Grand Concourse @ 161 St,40.826849,-73.922609,0,1,Bronx,10451
825,719,Grand Concourse @ E 149 St,40.81857,-73.927322,1,1,Bronx,10451
832,726,Guy Brewer Blvd @ N Conduit Ave,40.667978,-73.771617,1,1,Queens,11434
839,738,Flatbush Ave @ Aviator Sports & Golf Club,40.5902,-73.900803,1,1,Brooklyn,11234
840,733,Ft Washinton @ 179 St,40.849349,-73.93894,0,1,Manhattan,10033
841,732,Ft Washington @ 178 St,40.848657,-73.939207,1,1,Manhattan,10033
858,752,Hylan Blvd @ Richmond Ave,40.534229,-74.153896,1,1,Staten Island,10312
860,754,Hylan Blvd @ Huguenot Ave,40.524067,-74.186177,1,1,Staten Island,10312
861,755,Hylan Blvd @ Arden Ave,40.529434,-74.161351,1,1,Staten Island,10312
862,756,Hylan Ave @ Page Ave,40.507726,-74.230003,1,1,Staten Island,10309
863,757,Hylan Blvd @ Seguine Ave,40.519122,-74.197091,1,1,Staten Island,10309
864,758,Hylan Blvd @ Midland Ave,40.577965,-74.102264,1,1,Staten Island,10306
872,764,Hamilton Ave @ Hamilton PL @ 15 St (S SR),40.669085,-73.997168,1,1,Brooklyn,11232
876,769,Flatbush Ave @ Ave U,40.609864,-73.922379,9,9,Brooklyn,11234
877,770,Flatbush Ave @ Kings Hwy,40.622374,-73.936664,1,1,Brooklyn,11234
878,771,Flatbush Ave @ Marine Park,40.601134,-73.913036,9,9,Brooklyn,11234
850,744,Hylan Blvd @ Seaview Ave,40.586632,-74.091912,1,1,Staten Island,10305
327,202,Fordham Rd @ Hughes Ave,40.8575452887,-73.8840866089,0,9,Bronx,10458
691,642,FDR Dr @ 79 St,40.770256,-73.947626,0,1,Manhattan,10028
291,188,Henry Hudson Pkwy @ 96 St,40.7956179688,-73.9761829376,1,9,Manhattan,10024
844,737,Flatbush Ave @ Fillmore Ave,40.614704,-73.928063,1,2,Brooklyn,11234
805,705,Harlem Rvr Dr (FDR) @ 166 St,40.836133,-73.934883,1,1,Manhattan,10032
879,772,Hylan Blvd @ West Fingerboard Rd & Sand Ln,40.598942,-74.072231,1,1,Staten Island,10305
896,781,Henry Hudson Pkwy @ 125 St,40.816868,-73.96281,9,9,Manhattan,10024
895,779,Henry Hudson Pkwy @ 70 St,40.779679,-73.988462,0,1,Manhattan,10069
929,818,FDR Dr @ Old Slip,40.703052,-74.007824,0,1,Manhattan,10004
933,501,Henry Hudson Pkwy @ 125 St,40.818617,-73.96099,0,1,Manhattan,10027
1008,895,Flushing Ave @ 54 St,40.715065,-73.913276,1,0,Queens,11378
1009,896,Flushing Ave @ 61 St,40.721009,-73.904092,1,0,Queens,11378
1010,897,Flushing Ave @ Fresh Pond Rd,40.721888,-73.903107,1,0,Queens,11378
1011,898,Flushing Ave @ Grand Ave & 64 St,40.722749,-73.901592,1,0,Queens,11378
1012,899,Grand Ave @ Hamilton Pl,40.724536,-73.898416,1,0,Queens,11378
1013,900,Grand Ave @ LIE,40.725764,-73.895635,1,0,Queens,11378
314,image,Marine Parkway @ South Bound,40.567187,-73.880567,999,999,Queens,11694
146,111,Major Deegan @ Triboro Bridge,40.809443,-73.929361,0,1,Bronx,10454
147,122,New Eng Thru @ Bartow,40.868476,-73.832667,0,1,Bronx,10475
216,55,LIE @ QMT-  Pulaski Br,40.7409167225,-73.9533948898,0,0,Queens,11101
202,41,Major Deegan Expy @ S of W 167 Street,40.8368010455,-73.9300918579,9,0,Bronx,10452
277,172,NE Thruway @ Conner St,40.8839,-73.8259,1,1,Bronx,10475
287,184,Manhattan BBT Entrance,40.7064412544,-74.0160942078,1,1,Manhattan,10280
294,191,Macombs Dam Bridge,40.828115,-73.931447,0,1,Bronx,10451
373,264,LIE EB @ Pulaski Bridge,40.73926,-73.952459,9,9,Bridge,Bridge
404,294,Lexington Ave @ 57 ST,40.7600656553,-73.9687585831,1,1,Manhattan,10022
406,296,MADISON @ 34 ST,40.7468668116,-73.982834816,1,1,Manhattan,10016
407,297,MADISON @ 57 ST,40.7614634089,-73.9721488953,1,0,Manhattan,10022
412,302,Lexington Ave @ 49 St,40.7550595058,-73.9727497101,1,0,Manhattan,10017
446,338,Montgomergy @ South St,40.710689,-73.984656,1,1,Manhattan,10002
459,371,MHB-16 Manhattan Colonade Entr,40.716139,-73.996063,1,1,Manhattan,10002
466,386,MHB-20 Mahn S URW @ Anch,40.709987197,-73.9930057526,0,1,Manhattan,10002
467,391,MHB-25 Manh S URW @ Twr Walkwy,40.708714,-73.991704,0,1,Bridge,Bridge
470,397,MHB-31 Bklyn N URW @ Anch,40.7030577937,-73.9884996414,0,1,Brooklyn,11201
522,467,Madison Ave @ 42 St,40.7519711087,-73.9790153503,1,1,Manhattan,10165
528,470,Madison Ave @ 49 St,40.7563598406,-73.9758396149,1,1,Manhattan,10017
530,472,Lenox Ave @ 125 St,40.80798,-73.945472,1,1,Manhattan,10027
536,475,Madison Ave @ 96 St,40.7864554815,-73.9539957047,1,1,Manhattan,10128
540,181,Lexington Ave @ 72 St,40.7697193075,-73.962020874,1,1,Manhattan,10021
541,483,Lexington Ave @ 23 St,40.7388356913,-73.9845943451,9,9,Manhattan,10010
613,612,MLK Jr. Expwy @ Watchogue Rd,40.617552,-74.15205,0,0,Staten Island,10314
618,613,MLK Jr. Expwy @ Forest Ave.,40.624898,-74.146235,0,0,Staten Island,10314
621,614,MLK Jr. Expwy @ Walker Street,40.630956,-74.145741,9,0,Staten Island,10303
623,615,Korean War Veterans Pkwy @ Tyrellan Ave,40.525674,-74.230371,0,0,Staten Island,10309
643,555,Long Island Expy @ 27th St,40.739737,-73.941864,0,0,Queens,11101
646,556,Long Island Expy @ Greenpoint Ave,40.736478,-73.928855,0,0,Queens,11104
648,557,Long Island Expy ramp to W/B BQE,40.735242,-73.923918,0,0,Queens,11378
531,473,Park Ave @ 23 St,40.7393884716,-73.9863109589,1,1,Manhattan,10010
649,558,Long Island Expy @ ramp to W/B BQE,40.733938,-73.921289,0,0,Queens,11377
650,559,Long Island Expy @ 48 St UL,40.732226,-73.919593,0,0,Queens,11378
651,560,Long Island Expy @ 48th St LL,40.732396,-73.919523,0,0,Queens,11377
652,561,Long Island Expy btwn 50 St - 58th St,40.730618,-73.914372,0,0,Queens,11378
653,563,Long Island Expy @ Grand Avenue,40.725338,-73.896916,0,0,Queens,11378
654,564,Long Island Expy @ 75 St,40.728409,-73.886147,0,0,Queens,11373
655,565,Long Island Expy @ 84 St,40.729801,-73.877454,0,0,Queens,11373
658,568,Long Island Expy @ Lawrence St,40.743441,-73.83333,0,0,Queens,11355
659,569,Long Island Expy @ Kissena Blvd,40.738723,-73.814768,0,0,Queens,11365
660,570,Long Island Expy @ 163rd St,40.738661,-73.805945,0,0,Queens,11365
661,571,Long Island Expy @ 172nd St,40.738072,-73.797433,0,0,Queens,11365
662,572,Long Island Expy @ 185th St,40.739972,-73.790251,0,0,Queens,11365
663,573,Long Island Expy @ Underhill Ave,40.742773,-73.780607,9,9,Queens,11365
712,130,LIE @ Marathon Pkwy,40.760716,-73.73183,0,1,Queens,11362
798,396,MHB-30 @ BRK S URW @ TWR Walk Way,40.705035,-73.98958,0,1,Bridge,Bridge
799,161,LIE @ Oceania St,40.7458,-73.767759,0,2,Queens,11364
800,387,MHB-21 Manh N URDWY @ Arch,40.708881,-73.991336,0,2,Bridge,Bridge
801,388,MHB-22 Manh N URDWY @ Twr,40.708834,-73.991433,0,1,Bridge,Bridge
802,389,MHB-23 Manh LRDWY @ Twr,40.708814,-73.991511,0,1,Bridge,Bridge
803,390,MHB-24 Manh S URDWY @ Twr,40.708773,-73.991612,0,1,Bridge,Bridge
807,394,MHB-28 Bklyn LRDW @ Twr,40.705069,-73.989401,0,0,Bridge,Bridge
808,395,MHB-29 Brklyn S URDWY @ Twr,40.705039,-73.989502,0,0,Bridge,Bridge
809,392,MHB-26 BKLYN N UPRDW @ TWR - Bikeway,40.70502,-73.989161,0,1,Bridge,Bridge
811,707,Macombs Dam Bridge @ E 161 St,40.829275,-73.928693,1,1,Bronx,10452
813,383,MHB-17 Manh LRW @ X OVER,40.712361,-73.993504,0,1,Manhattan,10002
814,384,MHB-18 Manh LRW @ EOF X Over,40.716139,-73.996063,0,1,Manhattan,10002
822,398,MHB-32 Bklyn S URDW @ Anch,40.702878,-73.98845,0,1,Brooklyn,11201
848,742,Northern Blvd @ 108 St,40.757824,-73.861028,1,1,Queens,11369
849,743,Northern Blvd @ 114 St,40.758271,-73.855567,0,1,Queens,11369
521,450,Lenox Ave @ 135 St,40.8133220296,-73.9406061172,0,9,Manhattan,10037
1029,915,Flushing Bridge,40.762558,-73.83709,0,1,Queens,Bridge
948,836,GE-10-WB_at_46th_St-Ex23,40.650021,-74.012391,0,0,Brooklyn,11220
869,382,MHB-16 Manh Colonade Entr,40.71298,-73.993783,1,1,Manhattan,10002
870,762,MHB-16A Manh East of Colonnade Entr,40.715131,-73.995022,0,1,Manhattan,10002
880,773,Northern Blvd @ 51 St,40.752967,-73.910238,1,1,Queens,11377
894,785,LIE @ College Point Blvd,40.744001,-73.837011,1,1,Queens,11355
902,790,Kissena Blvd @ LIE N S/R,40.739234,-73.815061,1,1,Queens,11355
903,791,Main St @ LIE N S/R,40.742587,-73.825432,1,1,Queens,11367
904,792,Main St @ Roosevelt Ave,40.759565,-73.830121,9,9,Queens,11354
916,804,Jackie Robinson Pkwy @ Metropolitan Ave,40.708048,-73.970297,0,0,Bridge,Bridge
927,816,Main St @ Sanford Ave,40.756669,-73.828794,1,1,Queens,11355
938,829,Jackie Robinson Pkwy @ Jamaica Ave,40.678191,-73.897749,0,1,Brooklyn,11207
950,838,LIE-11-EB_at_60th_St-Ex18,40.726831,-73.906097,0,0,Queens,11378
951,839,LIE-15-WB_at_Queens_Blvd-Ex19,40.732826,-73.868289,0,0,Queens,11373
953,841,LIE-20-WB_at_146th_St-Ex24,40.741394,-73.822525,0,0,Queens,11367
972,859,Northern Blvd @ 82 St,40.755492,-73.885347,1,1,Queens,11372
977,865,Northern Blvd @ Broadway,40.753292,-73.906896,1,1,Queens,11377
978,866,Northern Blvd @ 48 St,40.753647,-73.914468,1,1,Queens,11103
1033,919,NB Cross Brx Expy-Webster Av Exit ramp @ E 174 St & Cater Av,40.844531,-73.903627,1,1,Bronx,10457
1035,921,Melrose Ave/Webster Ave @ E 161,40.824194,-73.913826,1,0,Bronx,10451
1038,924,Malcolm X Blvd/Lenox Ave @ 110 St/CPN,40.798238,-73.952408,1,0,Manhattan,10026
320,image,Queens Midtown Tunnel @ Manhattan Side,40.7452411571,-73.9706468582,999,999,Manhattan,10016
310,image,Queens Midtown Tunnel @ Queens Side,40.7417621228,-73.9584159851,999,999,Queens,11101
126,148,Qns Blvd @ 65 PL,40.741495,-73.898293,1,1,Queens,11377
161,56,Queens Blvd @ Van Dam,40.743034,-73.934624,1,1,Queens,11101
215,54,Queens Plaza North @ 2811 (Westside),40.7493702419,-73.9386320114,0,1,Queens,11101
244,95,Outerbridge Crossing @ Tyrellan Ave,40.525714,-74.230356,0,1,Staten Island,10309
245,96,SIE @ Clove Rd,40.609361,-74.091434,0,1,Staten Island,10304
288,185,Queens Blvd @ 51 St,40.742627,-73.914056,1,2,Queens,11377
344,210,South St @ Broad St,40.701797,-74.011144,9,9,Manhattan,10004
419,309,Park Ave @ 34 St,40.7461840415,-73.9812469482,1,1,Manhattan,10016
424,314,Sands St @ Brooklyn Bridge Ent,40.699961,-73.986828,1,1,Brooklyn,11201
425,315,Sands St @ BQE Ent,40.699186123,-73.9847660065,1,1,Brooklyn,11201
426,316,Pearl St @ Dover,40.7086859556,-74.0019321442,1,0,Manhattan,10038
430,320,RT. 9A @ N. Moore St,40.7196481192,-74.0120601654,1,1,Manhattan,10013
476,404,QBB SOR @ 1 Ave,40.7593830207,-73.9615058899,0,2,Manhattan,10022
478,407,QBB NOR @ York Ave,40.7587328861,-73.9600896835,0,1,Manhattan,10022
479,408,QBB UL CM @ York Ave,40.7585703514,-73.9603900909,0,1,Manhattan,10022
480,412,QBB LL CM @ W Channel,40.7573675826,-73.9569997787,0,1,Bridge,Bridge
481,413,QBB UL CM @ Roosevelt,40.7561973001,-73.9546823502,9,9,Manhattan,10044
482,415,QBB UL @ Queens Pier,40.7547344181,-73.951292038,0,1,Bridge,Bridge
484,417,QBB Uramp @ 23 St,40.7508982635,-73.9421081543,0,1,Queens,11101
485,418,QBB @ Crescent St,40.7502805569,-73.9401340485,0,1,Queens,11101
498,436,Queens Blvd Mid Span of QBB,40.747615,-73.936121,1,1,Queens,11101
532,476,St Nicholas Ave @ 145 St,40.824429,-73.944747,1,1,Manhattan,10031
552,492,Park Ave @ 57 St,40.7608458005,-73.9705181122,1,1,Manhattan,10022
572,511,Prospect Expy @ Caton Ave,40.647792,-73.974938,0,0,Brooklyn,11218
573,512,Prospect Expy @ Fort Hamilton Pkwy,40.649811,-73.97541,0,0,Brooklyn,11218
577,514,Prospect Expy @ 9 Ave,40.657429,-73.983135,0,0,Brooklyn,11215
578,515,Prospect Expy @ 7 Ave,40.660376,-73.987234,0,0,Brooklyn,11215
639,628,Staten Island Expwy @ W of South Ave,40.621249,-74.168873,0,0,Staten Island,10314
641,630,Staten Island Expwy @ Richmond Ave,40.615044,-74.15735,9,9,Staten Island,10314
642,631,Staten Island Expwy @ SIE/MLK Interchange,40.612242,-74.153767,9,9,Staten Island,10314
644,632,Staten Island Expwy @ Victory Blvd.,40.609522,-74.150183,0,0,Staten Island,10314
697,649,Prospect Pkwy @ 3 Ave,40.666593,-73.994958,0,1,Brooklyn,11215
707,658,Ocean Pkwy @ Ave U,40.59785,-73.9655,0,1,Brooklyn,11223
723,672,Ocean Pkwy @ Ave I,40.626558,-73.970924,1,1,Brooklyn,11230
724,673,Ocean Pkwy @ Ditmas Ave,40.636159,-73.972751,1,1,Brooklyn,11218
726,675,Queens Blvd @ Jackson Ave,40.7489478,-73.9373769,1,0,Queens,11101
727,676,Queens Plz S @ 27 St,40.7501753,-73.9398494,9,9,Queens,11101
728,677,Queens Blvd @ Skillman,40.7460324,-73.9344491,1,0,Queens,11101
737,685,Queens Plaza N @ Northern Blvd,40.750323,-73.938321,0,1,Queens,11101
738,686,Northern Blvd @ Honeywell Bridge,40.752004,-73.931943,1,1,Queens,11101
740,688,St Nicholas Ave @ 125 St,40.810107,-73.952585,1,1,Manhattan,10027
744,692,Springfield Ave @ Jamaica Ave,40.718516,-73.735207,9,9,Queens,11429
746,694,Northern Blvd @ Little Neck Pkwy,40.770649,-73.735503,9,9,Queens,11362
793,700,Ocean Pkwy @ Church Ave,40.644933,-73.974359,1,1,Brooklyn,11218
830,724,Rockaway Blvd @ Van Wyck Expy W S/R,40.674459,-73.80218,1,1,Queens,11420
831,725,Rockaway Blvd @ Van Wyck Expy E S/R,40.674354,-73.801268,1,1,Queens,11436
833,727,Rockaway Blvd @ Baisley Blvd,40.672635,-73.785637,1,1,Queens,11434
834,728,S Conduit Ave @ 150 St,40.665993,-73.78955,9,9,Queens,11430
837,731,Rockaway Blvd @ Brookville Blvd,40.640648,-73.743377,9,9,Queens,11422
900,788,Kissena Blvd @ Holly Ave,40.750627,-73.819113,1,1,Queens,11355
949,837,LIE-06-EB_ramp_E_BQE_to_W_LIE,40.733208,-73.921545,1,0,Queens,11378
932,821,Malcom X Blvd @ 145 St,40.820458,-73.936233,1,1,Manhattan,10039
438,328,South Street @ Pike Street,40.7092715174,-73.9915466309,0,1,Bridge,Bridge
842,735,Rockaway Blvd @ S. Conduit Ave,40.6668,-73.779833,1,1,Queens,11434
843,736,Rockaway Blvd @ Farmers Blvd,40.659656,-73.773968,0,1,Queens,11430
851,745,Ocean Pkwy @ Surf Av @ Sea Breeze Ave,40.575219,-73.968764,1,1,Brooklyn,11235
853,747,Ocean Pkwy @ Kings Hwy,40.605697,-73.966819,0,0,Brooklyn,11223
855,749,Seagirt Blvd @ B 9 St,40.596501,-73.744193,0,1,Queens,11691
866,760,Pelham Pkwy @ Stillwell Ave,40.856678,-73.836682,1,2,Bronx,10461
868,765,Queens Blvd @ 39 ST,40.744152,-73.926136,1,2,Queens,11101
881,774,Northern Blvd @ Parsons Blvd,40.764641,-73.82347,1,1,Queens,11354
882,775,Northern Blvd @ Union St,40.763955,-73.828126,1,1,Queens,11354
883,776,Pelham Pkwy E/B @ Boston Rd,40.855609,-73.869347,1,1,Bronx,10462
884,777,Pelham Pkwy W/B @ Boston Rd,40.857212,-73.868891,9,9,Bronx,10462
886,780,Roosevelt Ave @ Parsons Blvd,40.761617,-73.822077,1,1,Queens,11354
887,406,QBB SOR @ Sutton Pl,40.758904,-73.959539,0,1,Manhattan,10022
892,783,QBB LL CM @ East Channel,40.75744,-73.955909,0,1,Bridge,Bridge
888,No Response,QBB SOR @ W Channel,40.757855,-73.957152,9,9,Bridge,Bridge
893,784,QBB LL CM @ York Ave,40.75904,-73.959443,1,1,Manhattan,10022
898,411,QBB NOR @ W Channel,40.758048,-73.957042,0,1,Bridge,Bridge
901,789,Stillwell Ave @ 86 St,40.596706,-73.985239,1,1,Brooklyn,11223
909,797,Park Ave @ 72 St,40.77114,-73.963907,1,1,Manhattan,10021
920,808,Sands St @ Adams St,40.700378,-73.988693,9,9,Brooklyn,11201
912,800,Old Fulton St @ Furman St,40.702956,-73.994687,1,2,Brooklyn,11201
913,801,Old Fulton St @ Prospect St,40.700757,-73.991042,1,1,Brooklyn,11201
921,810,Queens Blvd @ 39 St - East,40.74383,-73.926217,1,1,Queens,11101
925,814,Northern Blvd @ Main St,40.762967,-73.831958,1,0,Queens,11354
928,817,QBB NOR @ 1 Ave,40.760066,-73.961675,1,1,Manhattan,10022
939,828,Northern Blvd @ Junction Blvd,40.756845,-73.873712,1,1,Queens,11369
976,864,Northern Blvd @ Steinway,40.752466,-73.924313,1,1,Queens,11101
1025,912,Sheridan Expwy (SHE-01) SB @ Jennings St,40.830583,-73.885398,0,0,Bronx,10459
1027,913,Queens Blvd @ 48 St,40.743075,-73.916846,1,0,Queens,11104
304,image,Throgs Neck Bridge @ Queens Bound,40.789083,-73.79157,999,999,Queens,11360
298,image,Triborough Bridge Bronx Bound,40.799604,-73.918512,999,999,Bronx,10454
299,image,Triborough Bridge Queens Bound,40.777421721,-73.9257144928,999,999,Queens,11105
301,image,Triborough Bridges @ Manhattan Bound,40.80055609,-73.9291906357,999,999,Manhattan,10035
306,image,Verrazano-Narrows @ Brooklyn Bound,40.601213,-74.055619,999,999,Staten Island,10305
305,image,Verrazano-Narrows @ Staten Island Bound,40.603283,-74.054887,999,999,Staten Island,10305
302,image,Whitestone @ Bronx Bound,40.806837,-73.832813,999,999,Bronx,10465
303,image,Whitestone @ Queens Bound,40.7958453903,-73.8258075714,999,999,Queens,11357
118,128,GCP @ 214 St,40.7269335439,-73.7537097931,0,2,Queens,11427
155,171,Victory Blvd @ Bay St,40.637748,-74.076018,9,9,Staten Island,10301
211,50,West St @ Canal St,40.7250797391,-74.0104722977,1,1,Manhattan,10013
292,189,West St @ Clarkson,40.729832,-74.010658,1,0,Manhattan,10014
319,90,West Street @ Intrepid,40.7600981615,-74.0021896362,0,2,Manhattan,10018
330,217,Worth St @ Centre St,40.7143786991,-74.0019750595,1,0,Manhattan,10007
338,212,Water St @ Wall St,40.704424212,-74.0072107315,1,1,Manhattan,10005
339,213,Water St @ John St,40.7060508639,-74.0048503876,1,1,Manhattan,10038
401,71,West St @ Murray,40.7144437562,-74.013261795,0,1,Manhattan,10007
431,321,Worth Street @ W. Broadway,40.7169158793,-74.0075540543,9,9,Manhattan,10013
432,322,Worth Street @ Lafayette Street,40.7148015692,-74.002790451,1,1,Manhattan,10007
433,323,Worth Street @ Bowery,40.7127522506,-73.9982843399,1,1,Manhattan,10038
451,347,West Shore Expy @ Arden Ave,40.5597539509,-74.199385643,9,0,Staten Island,10309
453,356,WBB-1 @ Bklyn Plaza,40.7096293582,-73.9597463608,0,0,Brooklyn,11211
455,359,WBB-4 @ NOR Bklyn-Mid Span,40.7129474265,-73.9717197418,0,0,Bridge,Bridge
456,361,WBB-6 @ Delancy-Clinton,40.7172411519,-73.9855384827,0,0,Manhattan,10002
457,369,WBB-14 @ NIR Bklyn Kent Ave,40.7117438326,-73.9673423767,9,9,Brooklyn,11249
458,374,WBB-18 @ SOR Cntr Span,40.7126871918,-73.9720630646,0,0,Bridge,Bridge
460,373,WBB-19 @ Bklyn Tower,40.7111257624,-73.9664411545,0,0,Brooklyn,11249
461,375,WBB-20 @ MidSpan Berry St,40.7100522584,-73.9630937576,0,0,Brooklyn,11211
463,377,WBB-22 @ S Manh Twr,40.7137931822,-73.9765691757,9,9,Manhattan,10002
464,378,WBB-23 @ N Manh Twr,40.714282,-73.976186,0,0,Manhattan,10002
474,402,Sutton Pl @ 58 St,40.7572700598,-73.9599609375,1,1,Manhattan,10022
535,474,Union Sq @ 14 St,40.735226,-73.990946,1,1,Manhattan,10003
568,582,Van Wyck Expwy @ Alwick Rd SB,40.673467,-73.801589,0,0,Queens,11420
575,585,Van Wyck Expwy @ Foch Blvd. SB,40.677796,-73.80354,0,0,Queens,11420
576,586,Van Wyck Expwy Btwn 115 Ave. & 116 Ave,40.680149,-73.804696,0,0,Queens,11420
579,587,Van Wyck Expwy @ 111 Ave,40.684474,-73.806756,0,0,Queens,11420
584,590,Van Wyck Expwy @ 101  Ave SB,40.693773,-73.81193,0,0,Queens,11419
586,592,Van Wyck Expwy @ 91 Ave,40.699832,-73.814823,0,0,Queens,11435
587,593,Van Wyck Expwy @ Hillside Ave,40.703875,-73.8167,0,0,Queens,11435
590,594,Van Wyck Expwy @ 87 Ave,40.706768,-73.819027,0,0,Queens,11435
591,595,Van Wyck Expwy @ Queens Blvd.(entrance ramp),40.711483,-73.821954,0,0,Queens,11435
593,596,Van Wyck Expwy @ Jackie Robinson Pkwy,40.713339,-73.824376,9,9,Queens,11415
852,746,Ocean Pkwy @ Ave X,40.591079,-73.965347,1,9,Brooklyn,11223
582,589,Van Wyck Expwy @ 101 Ave NB,40.693968,-73.811431,0,0,Queens,11435
562,581,Van Wyck Expwy @ 133 Ave SB,40.669369,-73.80159,0,0,Queens,11420
391,281,Van Wyck Expy @ S Conduit Ave LL,40.666235,-73.801711,0,0,Queens,11430
594,597,Van Wyck Expwy @ GCP/Interchange,40.716877,-73.826497,0,0,Queens,11367
596,598,Van Wyck Expwy @ 67 Rd,40.733169,-73.835841,0,0,Queens,11367
597,599,Van Wyck Expwy @ LIE,40.7393559552,-73.845076561,0,0,Queens,11367
601,601,Whitestone Expwy @ 25 Rd (Median),40.776191,-73.828214,0,0,Queens,11354
602,602,Whitestone Expwy @ 14 Ave (Median),40.786576,-73.824043,0,0,Queens,11357
626,617,West Shore Expwy @ Englewood Ave,40.532279,-74.223976,0,0,Staten Island,10309
628,618,West Shore Expwy @ Woodrow Rd,40.541363,-74.224019,0,0,Staten Island,10309
629,622,West Shore Expwy @ Fresh Kills Creek,40.577635,-74.19121,0,0,Staten Island,10314
631,623,West Shore Expwy @ Victory Blvd,40.566177,-74.193635,0,0,Staten Island,10314
636,626,West Shore Expwy @ Edward Curry Ave,40.609685,-74.181833,0,0,Staten Island,10314
678,584,VWE08 NB at Foch Blvd - Ex2,40.6776,-73.802945,0,2,Queens,11436
682,619,WSE03 SB at Bloomingdale Rd-Ex3,40.54857,-74.220693,9,9,Staten Island,10309
683,620,WSE04 SB at Rossville Ave - Ex4,40.554765,-74.213161,0,0,Staten Island,10309
684,621,WSE06 NB at Muldoon Ave - Ex5,40.566177,-74.193635,9,9,Staten Island,10314
702,653,West Shore Expy @ Victory Blvd,40.590118,-74.193442,0,0,Staten Island,10314
716,665,West Houston @ Hudson St,40.728739,-74.007137,1,1,Manhattan,10014
708,659,Woodhaven Blvd @ Jamaica Ave,40.694,-73.852,1,1,Queens,11421
715,664,West St @ West Houston St,40.729104,-74.010528,1,1,Manhattan,10014
718,667,West Broadway @ West Houston St,40.726958,-73.999928,9,9,Manhattan,10012
725,674,West Houston @ Varick St,40.7286,-74.005356,1,1,Manhattan,10014
745,693,Union tpke @ Little Neck Pkwy,40.743982,-73.717583,1,1,Queens,11004
792,701,Woodhaven Blvd @ Myrtle Ave,40.702613,-73.855269,1,1,Queens,11385
796,703,Woodhaven Blvd @ Furmanville Ave,40.720287,-73.865571,1,1,Queens,11379
826,720,Third Ave Bridge,40.807061,-73.933681,1,1,Manhattan,10037
905,793,Woodhaven Blvd @ Dry Harbor Rd,40.727879,-73.870974,1,1,Queens,11374
914,802,Washington St @ Prospect St,40.700743,-73.989736,1,1,Brooklyn,11201
926,815,Van Wyck Expwy @ Avery Ave,40.751959,-73.83615,0,2,Queens,11355
941,826,York Ave @ 63 St,40.761216,-73.957815,1,0,Manhattan,10065
954,842,VWE-02-NB_at_S.Cnduit_Av_UL-Ex1,40.665866,-73.801688,0,0,Queens,11430
955,843,VWE-04-NB_at_133rd_Ave-Ex1,40.669112,-73.801101,0,0,Queens,11436
958,846,VWE-26-NB_at_GCP-Intr.-Ex14,40.716782,-73.826461,9,9,Queens,11367
957,830,VWE-21-NB_at_QnsBlvd-Et.Rmp-Ex9,40.71113,-73.821608,0,0,Queens,11435
959,847,VWE-27-NB_at_73rd_Terrace-Ex11,40.722917,-73.827542,0,0,Queens,11367
960,848,VWE-29-SB_at_LIE-Ex12,40.743313,-73.837726,0,0,Queens,11368
961,849,VWE-32-NB_at_Northern_Blvd-Ex13,40.762527,-73.839458,9,9,Queens,11368
962,850,WSE-12-N_at_Bloomfield_Ave_Ex9,40.612187,-74.180287,0,0,Staten Island,10314
985,873,Water St @ Whitehall,40.702389,-74.012806,1,0,Manhattan,10004
1034,920,Webster Ave @ E 180 St,40.851889,-73.898344,1,0,Bronx,10457
281,178,Cross Island Pkwy @ Bayside Marina,40.779278,-73.768564,1,2,Queens,11360
403,431,3 AVE @ 34 ST,40.7448184804,-73.9779853821,1,0,Manhattan,10016
497,435,Belt Pkwy @ Springfield Blvd,40.6652749911,-73.7575721741,1,9,Queens,11413
580,516,Prospect Expy @ 6 Ave,40.662427,-73.988693,1,0,Brooklyn,11215
645,633,Staten Island Expwy @ Bradley Ave,40.60817,-74.132073,0,0,Staten Island,10314
581,588,Van Wyck Expwy @ 109 Ave,40.687341,-73.807777,1,0,Queens,11435
666,562,Long Island Expy @ 58th St LL,40.729904,-73.911293,0,9,Queens,11378
